{
    "links": {
        "self": "http://www.neowsapp.com/rest/v1/neo/3837586?api_key=iIulBulltgU6a56xZRHN4H3l9WmuAYTsLGpBGhQ2"
    },
    "id": "3837586",
    "neo_reference_id": "3837586",
    "name": "(2019 AM2)",
    "designation": "2019 AM2",
    "nasa_jpl_url": "http://ssd.jpl.nasa.gov/sbdb.cgi?sstr=3837586",
    "absolute_magnitude_h": 21.2,
    "estimated_diameter": {
        "kilometers": {
            "estimated_diameter_min": 0.1529519353,
            "estimated_diameter_max": 0.3420109247
        },
        "meters": {
            "estimated_diameter_min": 152.9519353442,
            "estimated_diameter_max": 342.0109247198
        },
        "miles": {
            "estimated_diameter_min": 0.095039897,
            "estimated_diameter_max": 0.2125156703
        },
        "feet": {
            "estimated_diameter_min": 501.8108275547,
            "estimated_diameter_max": 1122.0831222578
        }
    },
    "is_potentially_hazardous_asteroid": false,
    "close_approach_data": [
        {
            "close_approach_date": "2018-12-27",
            "close_approach_date_full": "2018-Dec-27 14:36",
            "epoch_date_close_approach": 1545921360000,
            "relative_velocity": {
                "kilometers_per_second": "18.1661946716",
                "kilometers_per_hour": "65398.300817917",
                "miles_per_hour": "40635.9608609996"
            },
            "miss_distance": {
                "astronomical": "0.2790024974",
                "lunar": "108.5319714886",
                "kilometers": "41738179.335720538",
                "miles": "25934902.0218299044"
            },
            "orbiting_body": "Earth"
        },
        {
            "close_approach_date": "2031-12-22",
            "close_approach_date_full": "2031-Dec-22 05:44",
            "epoch_date_close_approach": 1955684640000,
            "relative_velocity": {
                "kilometers_per_second": "22.9414885171",
                "kilometers_per_hour": "82589.3586616712",
                "miles_per_hour": "51317.8156639701"
            },
            "miss_distance": {
                "astronomical": "0.4726345745",
                "lunar": "183.8548494805",
                "kilometers": "70705125.633556315",
                "miles": "43934127.816114547"
            },
            "orbiting_body": "Earth"
        },
        {
            "close_approach_date": "2049-12-27",
            "close_approach_date_full": "2049-Dec-27 14:22",
            "epoch_date_close_approach": 2524227720000,
            "relative_velocity": {
                "kilometers_per_second": "17.7838602448",
                "kilometers_per_hour": "64021.8968811731",
                "miles_per_hour": "39780.7169815267"
            },
            "miss_distance": {
                "astronomical": "0.3163184279",
                "lunar": "123.0478684531",
                "kilometers": "47320563.055588573",
                "miles": "29403634.4180973874"
            },
            "orbiting_body": "Earth"
        }
    ],
    "orbital_data": {
        "orbit_id": "7",
        "orbit_determination_date": "2019-02-25 06:45:32",
        "first_observation_date": "2019-01-02",
        "last_observation_date": "2019-02-24",
        "data_arc_in_days": 53,
        "observations_used": 48,
        "orbit_uncertainty": "6",
        "minimum_orbit_intersection": ".268478",
        "jupiter_tisserand_invariant": "3.681",
        "epoch_osculation": "2459000.5",
        "eccentricity": ".3829179721639372",
        "semi_major_axis": "1.883577186458823",
        "inclination": "34.2644801568781",
        "ascending_node_longitude": "268.0225393572208",
        "orbital_period": "944.2207918855602",
        "perihelion_distance": "1.162321629805756",
        "perihelion_argument": "226.6853380706695",
        "aphelion_distance": "2.60483274311189",
        "perihelion_time": "2459471.704682647142",
        "mean_anomaly": "180.3453183717536",
        "mean_motion": ".3812667578322423",
        "equinox": "J2000",
        "orbit_class": {
            "orbit_class_type": "AMO",
            "orbit_class_description": "Near-Earth asteroid orbits similar to that of 1221 Amor",
            "orbit_class_range": "1.017 AU < q (perihelion) < 1.3 AU"
        }
    },
    "is_sentry_object": false
}